{"type": "FeatureCollection", "features": [ {"type": "Feature", "properties": {"norad_id": 66990, "name": "TJS-22", "group": "last-30-days", "lat": 0.222565194371427, "lon": -67.78788820286493, "alt_km": 35772.98252209062, "timestamp": "2025-12-22T08:58:19.049441+00:00", "meta": {"OBJECT_NAME": "TJS-22", "OBJECT_ID": "2025-290A", "EPOCH": "2025-12-21T08:36:29.010240", "MEAN_MOTION": 1.00270913, "ECCENTRICITY": 0.0003446, "INCLINATION": 1.9669, "RA_OF_ASC_NODE": 285.0278, "ARG_OF_PERICENTER": 342.4463, "MEAN_ANOMALY": 18.2812, "EPHEMERIS_TYPE": 0, "CLASSIFICATION_TYPE": "U", "NORAD_CAT_ID": 66990, "ELEMENT_SET_NO": 999, "REV_AT_EPOCH": 24, "BSTAR": 0, "MEAN_MOTION_DOT": 1.8e-07, "MEAN_MOTION_DDOT": 0}, "tle": {"line1": "1 66990U 25290A   25355.35866910  .00000018  00000+0  00000+0 0  9993", "line2": "2 66990   1.9669 285.0278 0003446 342.4463  18.2812  1.00270913   249"}}, "geometry": {"type": "Point", "coordinates": [-67.78788820286493, 0.222565194371427]}}, {"type": "Feature", "properties": {"norad_id": 66991, "name": "CZ-3B R/B", "group": "last-30-days", "lat": -3.185087927539507, "lon": -68.05073609293574, "alt_km": 31560.182054744237, "timestamp": "2025-12-22T08:58:19.049453+00:00", "meta": {"OBJECT_NAME": "CZ-3B R/B", "OBJECT_ID": "2025-290B", "EPOCH": "2025-12-15T17:23:33.043200", "MEAN_MOTION": 2.38388611, "ECCENTRICITY": 0.7240884, "INCLINATION": 28.4636, "RA_OF_ASC_NODE": 300.4666, "ARG_OF_PERICENTER": 182.7002, "MEAN_ANOMALY": 168.625, "EPHEMERIS_TYPE": 0, "CLASSIFICATION_TYPE": "U", "NORAD_CAT_ID": 66991, "ELEMENT_SET_NO": 999, "REV_AT_EPOCH": 16, "BSTAR": 0.00075879, "MEAN_MOTION_DOT": 0.00057911, "MEAN_MOTION_DDOT": -2.0514e-07}, "tle": {"line1": "1 66991U 25290B   25349.72468800  .00057911 -20514-6  75879-3 0  9998", "line2": "2 66991  28.4636 300.4666 7240884 182.7002 168.6250  2.38388611   165"}}, "geometry": {"type": "Point", "coordinates": [-68.05073609293574, -3.185087927539507]}}, {"type": "Feature", "properties": {"norad_id": 66993, "name": "2025-292A", "group": "last-30-days", "lat": -54.38871742525295, "lon": 79.64970082892997, "alt_km": 556.1733064449081, "timestamp": "2025-12-22T08:58:19.049464+00:00", "meta": {"OBJECT_NAME": "2025-292A", "OBJECT_ID": "2025-292A", "EPOCH": "2025-12-22T04:25:41.293344", "MEAN_MOTION": 15.0456003, "ECCENTRICITY": 0.0014211, "INCLINATION": 97.6512, "RA_OF_ASC_NODE": 68.6441, "ARG_OF_PERICENTER": 237.7696, "MEAN_ANOMALY": 122.2153, "EPHEMERIS_TYPE": 0, "CLASSIFICATION_TYPE": "U", "NORAD_CAT_ID": 66993, "ELEMENT_SET_NO": 999, "REV_AT_EPOCH": 181, "BSTAR": 0.00028042, "MEAN_MOTION_DOT": 3.879e-05, "MEAN_MOTION_DDOT": 0}, "tle": {"line1": "1 66993U 25292A   25356.18450571  .00003879  00000+0  28042-3 0  9990", "line2": "2 66993  97.6512  68.6441 0014211 237.7696 122.2153 15.04560030  1813"}}, "geometry": {"type": "Point", "coordinates": [79.64970082892997, -54.38871742525295]}}, {"type": "Feature", "properties": {"norad_id": 66994, "name": "2025-292B", "group": "last-30-days", "lat": -52.50404151810037, "lon": 78.92614282635084, "alt_km": 556.3180483545584, "timestamp": "2025-12-22T08:58:19.049475+00:00", "meta": {"OBJECT_NAME": "2025-292B", "OBJECT_ID": "2025-292B", "EPOCH": "2025-12-22T04:25:10.888320", "MEAN_MOTION": 15.04605117, "ECCENTRICITY": 0.0013986, "INCLINATION": 97.6521, "RA_OF_ASC_NODE": 68.6457, "ARG_OF_PERICENTER": 237.9818, "MEAN_ANOMALY": 122.005, "EPHEMERIS_TYPE": 0, "CLASSIFICATION_TYPE": "U", "NORAD_CAT_ID": 66994, "ELEMENT_SET_NO": 999, "REV_AT_EPOCH": 181, "BSTAR": 0.00034257, "MEAN_MOTION_DOT": 4.758e-05, "MEAN_MOTION_DDOT": 0}, "tle": {"line1": "1 66994U 25292B   25356.18415380  .00004758  00000+0  34257-3 0  9992", "line2": "2 66994  97.6521  68.6457 0013986 237.9818 122.0050 15.04605117  1817"}}, "geometry": {"type": "Point", "coordinates": [78.92614282635084, -52.50404151810037]}}, {"type": "Feature", "properties": {"norad_id": 66995, "name": "2025-292C", "group": "last-30-days", "lat": -51.841503882361195, "lon": 78.6833511955404, "alt_km": 556.1928873903453, "timestamp": "2025-12-22T08:58:19.049485+00:00", "meta": {"OBJECT_NAME": "2025-292C", "OBJECT_ID": "2025-292C", "EPOCH": "2025-12-22T04:25:00.344064", "MEAN_MOTION": 15.04633532, "ECCENTRICITY": 0.0014272, "INCLINATION": 97.6511, "RA_OF_ASC_NODE": 68.6446, "ARG_OF_PERICENTER": 238.3543, "MEAN_ANOMALY": 121.6292, "EPHEMERIS_TYPE": 0, "CLASSIFICATION_TYPE": "U", "NORAD_CAT_ID": 66995, "ELEMENT_SET_NO": 999, "REV_AT_EPOCH": 181, "BSTAR": 0.00037418, "MEAN_MOTION_DOT": 5.208e-05, "MEAN_MOTION_DDOT": 0}, "tle": {"line1": "1 66995U 25292C   25356.18403176  .00005208  00000+0  37418-3 0  9996", "line2": "2 66995  97.6511  68.6446 0014272 238.3543 121.6292 15.04633532  1819"}}, "geometry": {"type": "Point", "coordinates": [78.6833511955404, -51.841503882361195]}}, {"type": "Feature", "properties": {"norad_id": 66996, "name": "2025-292D", "group": "last-30-days", "lat": -50.096842193194895, "lon": 78.08267750641376, "alt_km": 556.1577685741486, "timestamp": "2025-12-22T08:58:19.049495+00:00", "meta": {"OBJECT_NAME": "2025-292D", "OBJECT_ID": "2025-292D", "EPOCH": "2025-12-22T04:24:31.953888", "MEAN_MOTION": 15.04655522, "ECCENTRICITY": 0.0013419, "INCLINATION": 97.6506, "RA_OF_ASC_NODE": 68.6442, "ARG_OF_PERICENTER": 240.9736, "MEAN_ANOMALY": 119.0146, "EPHEMERIS_TYPE": 0, "CLASSIFICATION_TYPE": "U", "NORAD_CAT_ID": 66996, "ELEMENT_SET_NO": 999, "REV_AT_EPOCH": 181, "BSTAR": 0.00022895, "MEAN_MOTION_DOT": 3.162e-05, "MEAN_MOTION_DDOT": 0}, "tle": {"line1": "1 66996U 25292D   25356.18370317  .00003162  00000+0  22895-3 0  9997", "line2": "2 66996  97.6506  68.6442 0013419 240.9736 119.0146 15.04655522  1817"}}, "geometry": {"type": "Point", "coordinates": [78.08267750641376, -50.096842193194895]}}, {"type": "Feature", "properties": {"norad_id": 66997, "name": "2025-292E", "group": "last-30-days", "lat": -46.570112098588936, "lon": 77.0025511642758, "alt_km": 556.0963080185029, "timestamp": "2025-12-22T08:58:19.049505+00:00", "meta": {"OBJECT_NAME": "2025-292E", "OBJECT_ID": "2025-292E", "EPOCH": "2025-12-22T04:23:35.393856", "MEAN_MOTION": 15.04743054, "ECCENTRICITY": 0.001382, "INCLINATION": 97.6526, "RA_OF_ASC_NODE": 68.648, "ARG_OF_PERICENTER": 241.907, "MEAN_ANOMALY": 118.076, "EPHEMERIS_TYPE": 0, "CLASSIFICATION_TYPE": "U", "NORAD_CAT_ID": 66997, "ELEMENT_SET_NO": 999, "REV_AT_EPOCH": 180, "BSTAR": 0.00028389, "MEAN_MOTION_DOT": 3.946e-05, "MEAN_MOTION_DDOT": 0}, "tle": {"line1": "1 66997U 25292E   25356.18304854  .00003946  00000+0  28389-3 0  9995", "line2": "2 66997  97.6526  68.6480 0013820 241.9070 118.0760 15.04743054  1808"}}, "geometry": {"type": "Point", "coordinates": [77.0025511642758, -46.570112098588936]}}, {"type": "Feature", "properties": {"norad_id": 66998, "name": "2025-292F", "group": "last-30-days", "lat": -39.66458148718356, "lon": 75.24538373859713, "alt_km": 556.0903886426213, "timestamp": "2025-12-22T08:58:19.049515+00:00", "meta": {"OBJECT_NAME": "2025-292F", "OBJECT_ID": "2025-292F", "EPOCH": "2025-12-22T04:21:45.112032", "MEAN_MOTION": 15.04916431, "ECCENTRICITY": 0.0014944, "INCLINATION": 97.6545, "RA_OF_ASC_NODE": 68.6524, "ARG_OF_PERICENTER": 242.9074, "MEAN_ANOMALY": 117.0628, "EPHEMERIS_TYPE": 0, "CLASSIFICATION_TYPE": "U", "NORAD_CAT_ID": 66998, "ELEMENT_SET_NO": 999, "REV_AT_EPOCH": 181, "BSTAR": 0.00037288, "MEAN_MOTION_DOT": 5.23e-05, "MEAN_MOTION_DDOT": 0}, "tle": {"line1": "1 66998U 25292F   25356.18177213  .00005230  00000+0  37288-3 0  9999", "line2": "2 66998  97.6545  68.6524 0014944 242.9074 117.0628 15.04916431  1816"}}, "geometry": {"type": "Point", "coordinates": [75.24538373859713, -39.66458148718356]}}, {"type": "Feature", "properties": {"norad_id": 66999, "name": "2025-292G", "group": "last-30-days", "lat": -36.93000871846254, "lon": 74.64777794260225, "alt_km": 555.9692795843885, "timestamp": "2025-12-22T08:58:19.049527+00:00", "meta": {"OBJECT_NAME": "2025-292G", "OBJECT_ID": "2025-292G", "EPOCH": "2025-12-22T04:21:01.440288", "MEAN_MOTION": 15.04980269, "ECCENTRICITY": 0.0014452, "INCLINATION": 97.6554, "RA_OF_ASC_NODE": 68.6544, "ARG_OF_PERICENTER": 244.9, "MEAN_ANOMALY": 115.0727, "EPHEMERIS_TYPE": 0, "CLASSIFICATION_TYPE": "U", "NORAD_CAT_ID": 66999, "ELEMENT_SET_NO": 999, "REV_AT_EPOCH": 181, "BSTAR": 0.000376, "MEAN_MOTION_DOT": 5.283e-05, "MEAN_MOTION_DDOT": 0}, "tle": {"line1": "1 66999U 25292G   25356.18126667  .00005283  00000+0  37600-3 0  9993", "line2": "2 66999  97.6554  68.6544 0014452 244.9000 115.0727 15.04980269  1812"}}, "geometry": {"type": "Point", "coordinates": [74.64777794260225, -36.93000871846254]}}, {"type": "Feature", "properties": {"norad_id": 67000, "name": "2025-292H", "group": "last-30-days", "lat": -36.57267961750988, "lon": 74.57552086080678, "alt_km": 555.9832538943956, "timestamp": "2025-12-22T08:58:19.049540+00:00", "meta": {"OBJECT_NAME": "2025-292H", "OBJECT_ID": "2025-292H", "EPOCH": "2025-12-22T04:20:55.902912", "MEAN_MOTION": 15.05001668, "ECCENTRICITY": 0.0014444, "INCLINATION": 97.6567, "RA_OF_ASC_NODE": 68.6563, "ARG_OF_PERICENTER": 244.686, "MEAN_ANOMALY": 115.2871, "EPHEMERIS_TYPE": 0, "CLASSIFICATION_TYPE": "U", "NORAD_CAT_ID": 67000, "ELEMENT_SET_NO": 999, "REV_AT_EPOCH": 168, "BSTAR": 0.00048192, "MEAN_MOTION_DOT": 6.794e-05, "MEAN_MOTION_DDOT": 0}, "tle": {"line1": "1 67000U 25292H   25356.18120258  .00006794  00000+0  48192-3 0  9993", "line2": "2 67000  97.6567  68.6563 0014444 244.6860 115.2871 15.05001668  1688"}}, "geometry": {"type": "Point", "coordinates": [74.57552086080678, -36.57267961750988]}}]}